X,Y,NAME,AREA_CODE,DESCRIPTIO,FILE_NAME,NUMBER,NUMBER0,POLYGON_ID,UNIT_ID,CODE,HECTARES,AREA,TYPE_CODE,DESCRIPT0,TYPE_COD0,DESCRIPT1,X_1,Y_1,degX,degY
-0.815246063519163,51.6491936279856,Wycombe District,DIS,District,BUCKINGHAMSHIRE_COUNTY,5,377,51844,11882,E07000007,32457.21,0,AA,CIVIL ADMINISTRATION AREA,,,,,-0.815246,51.649194
-0.590042554949182,51.5563798064671,South Bucks District,DIS,District,BUCKINGHAMSHIRE_COUNTY,7,403,51574,11693,E07000006,14127.564,0,AA,CIVIL ADMINISTRATION AREA,,,,,-0.590043,51.556380
-0.627747131648063,51.6805009045734,Chiltern District,DIS,District,BUCKINGHAMSHIRE_COUNTY,8,446,51905,11771,E07000005,19634.817,0,AA,CIVIL ADMINISTRATION AREA,,,,,-0.627747,51.680501
-0.885333427893165,51.8921844767968,Aylesbury Vale District,DIS,District,BUCKINGHAMSHIRE_COUNTY,18,597,51778,11903,E07000004,90275.325,0,AA,CIVIL ADMINISTRATION AREA,,,,,-0.885333,51.892184
0.060771295168726,52.5628410028094,Fenland District,DIS,District,CAMBRIDGESHIRE_COUNTY,6,441,41229,1357,E07000010,54735.541,90.52,AA,CIVIL ADMINISTRATION AREA,,,,,0.060771,52.562841
0.081300387878126,52.1727896733856,South Cambridgeshire District,DIS,District,CAMBRIDGESHIRE_COUNTY,11,582,41616,1303,E07000012,90168.725,5.992,AA,CIVIL ADMINISTRATION AREA,,,,,0.081300,52.172790
0.294782698080759,52.3429176048107,East Cambridgeshire District,DIS,District,CAMBRIDGESHIRE_COUNTY,16,639,41310,1348,E07000009,65172.027,44.122,AA,CIVIL ADMINISTRATION AREA,,,,,0.294783,52.342918
-0.220773550895638,52.3736138063434,Huntingdonshire District,DIS,District,CAMBRIDGESHIRE_COUNTY,23,754,41560,1470,E07000011,91254.599,8.743,AA,CIVIL ADMINISTRATION AREA,,,,,-0.220774,52.373614
0.132923406338011,52.1993686500585,Cambridge District (B),DIS,District,CAMBRIDGESHIRE_COUNTY,70,781,41655,1255,E07000008,4069.877,0,AA,CIVIL ADMINISTRATION AREA,,,,,0.132923,52.199369
-3.37316441394465,54.4138590724452,Copeland District (B),DIS,District,CUMBRIA_COUNTY,5,593,62424,12966,E07000029,77582.148,3820.783,AA,CIVIL ADMINISTRATION AREA,,,,,-3.373164,54.413859
-2.80877834278755,54.9709001752663,Carlisle District (B),DIS,District,CUMBRIA_COUNTY,8,654,124026,12712,E07000028,105435.848,1506.042,AA,CIVIL ADMINISTRATION AREA,,,,,-2.808778,54.970900
-2.85005231949285,54.2927329386373,South Lakeland District,DIS,District,CUMBRIA_COUNTY,12,779,123328,12934,E07000031,174319.085,19015.887,AA,CIVIL ADMINISTRATION AREA,,,,,-2.850052,54.292733
-3.24741910405328,54.7111640513823,Allerdale District (B),DIS,District,CUMBRIA_COUNTY,23,879,123466,13065,E07000026,132056.38,6276.496,AA,CIVIL ADMINISTRATION AREA,,,,,-3.247419,54.711164
-2.62182197180894,54.6127794949243,Eden District,DIS,District,CUMBRIA_COUNTY,31,989,124024,13049,E07000030,215647.474,0,AA,CIVIL ADMINISTRATION AREA,,,,,-2.621822,54.612779
-3.21230245175787,54.1265706492456,Barrow-in-Furness District (B),DIS,District,CUMBRIA_COUNTY,37,1009,62398,12941,E07000027,13206.382,5408.52,AA,CIVIL ADMINISTRATION AREA,,,,,-3.212302,54.126571
-1.87393859349128,53.3729502837265,High Peak District (B),DIS,District,DERBYSHIRE_COUNTY,1,562,53216,13755,E07000037,54025.403,0,AA,CIVIL ADMINISTRATION AREA,,,,,-1.873939,53.372950
-1.55954641290569,52.8309935118861,South Derbyshire District,DIS,District,DERBYSHIRE_COUNTY,2,629,124963,13540,E07000039,33812.9,0,AA,CIVIL ADMINISTRATION AREA,,,,,-1.559546,52.830994
-1.34669584699187,52.9354900691432,Erewash District (B),DIS,District,DERBYSHIRE_COUNTY,6,667,53095,13264,E07000036,10963.009,0,AA,CIVIL ADMINISTRATION AREA,,,,,-1.346696,52.935490
-1.44828792777545,53.2258288237108,North East Derbyshire District,DIS,District,DERBYSHIRE_COUNTY,10,718,52963,13391,E07000038,27562.36,0,AA,CIVIL ADMINISTRATION AREA,,,,,-1.448288,53.225829
-1.46665873803377,53.0292357940752,Amber Valley District (B),DIS,District,DERBYSHIRE_COUNTY,18,781,52976,13404,E07000032,26543.782,0,AA,CIVIL ADMINISTRATION AREA,,,,,-1.466659,53.029236
-1.27732468191364,53.2156269404873,Bolsover District,DIS,District,DERBYSHIRE_COUNTY,20,818,53019,13359,E07000033,16033.459,0,AA,CIVIL ADMINISTRATION AREA,,,,,-1.277325,53.215627
-1.69368006792486,53.1281502851073,Derbyshire Dales District,DIS,District,DERBYSHIRE_COUNTY,22,954,123934,13672,E07000035,79531.792,0,AA,CIVIL ADMINISTRATION AREA,,,,,-1.693680,53.128150
-1.40123094294304,53.2562807381165,Chesterfield District (B),DIS,District,DERBYSHIRE_COUNTY,79,992,52679,13717,E07000034,6603.531,0,AA,CIVIL ADMINISTRATION AREA,,,,,-1.401231,53.256281
-3.91462518590169,51.0698113480864,North Devon District,DIS,District,DEVON_COUNTY,4,764,122024,22933,E07000043,110504.544,1901.346,AA,CIVIL ADMINISTRATION AREA,,,,,-3.914625,51.069811
-3.22454709752117,50.7642307023118,East Devon District,DIS,District,DEVON_COUNTY,9,952,122081,22713,E07000040,82370.456,934.871,AA,CIVIL ADMINISTRATION AREA,,,,,-3.224547,50.764231
-3.65646833502211,50.6063261555507,Teignbridge District,DIS,District,DEVON_COUNTY,14,1118,122084,22881,E07000045,68100.809,711.546,AA,CIVIL ADMINISTRATION AREA,,,,,-3.656468,50.606326
-4.04621628590185,50.6560921403187,West Devon District (B),DIS,District,DEVON_COUNTY,16,1194,122016,22767,E07000047,116471.774,362.331,AA,CIVIL ADMINISTRATION AREA,,,,,-4.046216,50.656092
-3.55643798022914,50.8762616345053,Mid Devon District,DIS,District,DEVON_COUNTY,22,1286,123234,22902,E07000042,91289.777,0,AA,CIVIL ADMINISTRATION AREA,,,,,-3.556438,50.876262
-3.51017619222963,50.721634445197,Exeter District (B),DIS,District,DEVON_COUNTY,325,1335,124193,22606,E07000041,4788.838,84.538,AA,CIVIL ADMINISTRATION AREA,,,,,-3.510176,50.721634
-2.13118539098806,50.6816471559305,Purbeck District,DIS,District,DORSET_COUNTY,5,449,54548,14363,E07000051,42758.391,2317.159,AA,CIVIL ADMINISTRATION AREA,,,,,-2.131185,50.681647
-1.7882802563284,50.7615466122109,Christchurch District (B),DIS,District,DORSET_COUNTY,8,464,122206,14202,E07000048,5169.562,131.99,AA,CIVIL ADMINISTRATION AREA,,,,,-1.788280,50.761547
-2.57840718771922,50.7844919211166,West Dorset District,DIS,District,DORSET_COUNTY,19,631,53954,14539,E07000052,108706.244,553.381,AA,CIVIL ADMINISTRATION AREA,,,,,-2.578407,50.784492
-1.96153710442928,50.8636870720839,East Dorset District,DIS,District,DORSET_COUNTY,22,674,122192,14422,E07000049,35441.794,0,AA,CIVIL ADMINISTRATION AREA,,,,,-1.961537,50.863687
-2.24631055148526,50.9124690943083,North Dorset District,DIS,District,DORSET_COUNTY,23,768,54093,14451,E07000050,60921.79,0,AA,CIVIL ADMINISTRATION AREA,,,,,-2.246311,50.912469
-2.45533770833321,50.6095094054543,Weymouth and Portland District (B),DIS,District,DORSET_COUNTY,31,788,54004,14503,E07000053,4299.6,121.798,AA,CIVIL ADMINISTRATION AREA,,,,,-2.455338,50.609509
0.005056607278372,50.8821126302042,Lewes District,DIS,District,EAST_SUSSEX_COUNTY,10,301,42966,2896,E07000063,29438.924,232.512,AA,CIVIL ADMINISTRATION AREA,,,,,0.005057,50.882113
0.539316628870942,50.951595249404,Rother District,DIS,District,EAST_SUSSEX_COUNTY,17,358,43001,2852,E07000064,51815.326,640.808,AA,CIVIL ADMINISTRATION AREA,,,,,0.539317,50.951595
0.198655512375416,50.9673453315583,Wealden District,DIS,District,EAST_SUSSEX_COUNTY,25,440,122246,2678,E07000065,83626.508,126.685,AA,CIVIL ADMINISTRATION AREA,,,,,0.198656,50.967345
0.266198771050517,50.776100812478,Eastbourne District (B),DIS,District,EAST_SUSSEX_COUNTY,28,451,43091,2632,E07000061,4552.91,136.959,AA,CIVIL ADMINISTRATION AREA,,,,,0.266199,50.776101
0.570369061384195,50.8693404438029,Hastings District (B),DIS,District,EAST_SUSSEX_COUNTY,51,472,43131,2583,E07000062,3083.193,110.763,AA,CIVIL ADMINISTRATION AREA,,,,,0.570369,50.869340
0.310759789007351,51.6386351344647,Brentwood District (B),DIS,District,ESSEX_COUNTY,1,658,66040,19984,E07000068,15312.41,0,AA,CIVIL ADMINISTRATION AREA,,,,,0.310760,51.638635
0.809519617777002,51.5914214389957,Rochford District,DIS,District,ESSEX_COUNTY,6,688,65665,19625,E07000075,26341.107,9391.564,AA,CIVIL ADMINISTRATION AREA,,,,,0.809520,51.591421
0.14866520602324,51.7088778018172,Epping Forest District,DIS,District,ESSEX_COUNTY,11,752,66024,19968,E07000072,33898.398,0,AA,CIVIL ADMINISTRATION AREA,,,,,0.148665,51.708878
1.11504483282266,51.871420548827,Tendring District,DIS,District,ESSEX_COUNTY,16,819,65579,19547,E07000076,36581.791,2808.114,AA,CIVIL ADMINISTRATION AREA,,,,,1.115045,51.871421
0.279804819723576,51.9346002964608,Uttlesford District,DIS,District,ESSEX_COUNTY,17,902,66089,20033,E07000077,64118.28,0,AA,CIVIL ADMINISTRATION AREA,,,,,0.279805,51.934600
0.480915956294837,51.7254278834492,Chelmsford District (B),DIS,District,ESSEX_COUNTY,21,957,65747,19701,E07000070,34299.725,74.59,AA,CIVIL ADMINISTRATION AREA,,,,,0.480916,51.725428
0.860879146038455,51.8725370864112,Colchester District (B),DIS,District,ESSEX_COUNTY,27,1015,65602,19569,E07000071,34671.325,1352.828,AA,CIVIL ADMINISTRATION AREA,,,,,0.860879,51.872537
0.783191998235964,51.7097121159465,Maldon District (B),DIS,District,ESSEX_COUNTY,28,1066,65521,19501,E07000074,42668.833,6850.446,AA,CIVIL ADMINISTRATION AREA,,,,,0.783192,51.709712
0.589931914269747,51.9418289939578,Braintree District,DIS,District,ESSEX_COUNTY,29,1158,65847,19795,E07000067,61170.795,0,AA,CIVIL ADMINISTRATION AREA,,,,,0.589932,51.941829
0.108539456677934,51.7683490710212,Harlow District,DIS,District,ESSEX_COUNTY,41,1177,66137,20080,E07000073,3053.789,0,AA,CIVIL ADMINISTRATION AREA,,,,,0.108539,51.768349
0.466290893451829,51.5901335871381,Basildon District (B),DIS,District,ESSEX_COUNTY,44,1203,123286,19739,E07000066,11044.585,42.065,AA,CIVIL ADMINISTRATION AREA,,,,,0.466291,51.590134
0.594693782478191,51.5364141358618,Castle Point District (B),DIS,District,ESSEX_COUNTY,59,1225,65467,19459,E07000069,6369.849,1862.804,AA,CIVIL ADMINISTRATION AREA,,,,,0.594694,51.536414
-2.49012138319331,51.8282956753625,Forest of Dean District,DIS,District,GLOUCESTERSHIRE_COUNTY,14,539,124216,20508,E07000080,56143.215,3513.884,AA,CIVIL ADMINISTRATION AREA,,,,,-2.490121,51.828296
-1.89295216106918,51.8164516565656,Cotswold District,DIS,District,GLOUCESTERSHIRE_COUNTY,21,691,57355,20224,E07000079,116452.442,0,AA,CIVIL ADMINISTRATION AREA,,,,,-1.892952,51.816452
-2.30014678332148,51.7292648572224,Stroud District,DIS,District,GLOUCESTERSHIRE_COUNTY,24,772,124228,20571,E07000082,47617.314,1552.303,AA,CIVIL ADMINISTRATION AREA,,,,,-2.300147,51.729265
-2.08744455436867,51.9456152561892,Tewkesbury District (B),DIS,District,GLOUCESTERSHIRE_COUNTY,29,846,57513,20380,E07000083,41497.587,56.158,AA,CIVIL ADMINISTRATION AREA,,,,,-2.087445,51.945615
-2.240264626943,51.8493723769131,Gloucester District (B),DIS,District,GLOUCESTERSHIRE_COUNTY,93,878,57524,20391,E07000081,4082.658,27.355,AA,CIVIL ADMINISTRATION AREA,,,,,-2.240265,51.849372
-2.07402232456495,51.8969994790451,Cheltenham District (B),DIS,District,GLOUCESTERSHIRE_COUNTY,106,906,57403,20272,E07000078,4659.608,0,AA,CIVIL ADMINISTRATION AREA,,,,,-2.074022,51.896999
-1.20094358626921,51.2734589900967,Basingstoke and Deane District (B),DIS,District,HAMPSHIRE_COUNTY,8,678,64411,17653,E07000084,63381.724,0,AA,CIVIL ADMINISTRATION AREA,,,,,-1.200944,51.273459
-1.62471858691228,50.858391741854,New Forest District,DIS,District,HAMPSHIRE_COUNTY,9,750,122241,17733,E07000091,77690.9,2386.901,AA,CIVIL ADMINISTRATION AREA,,,,,-1.624719,50.858392
-1.32720788759819,50.9330238613591,Eastleigh District (B),DIS,District,HAMPSHIRE_COUNTY,10,781,122250,17596,E07000086,8526.796,550.369,AA,CIVIL ADMINISTRATION AREA,,,,,-1.327208,50.933024
-0.955124209383145,51.0745540162891,East Hampshire District,DIS,District,HAMPSHIRE_COUNTY,24,866,64067,17315,E07000085,51443.204,0,AA,CIVIL ADMINISTRATION AREA,,,,,-0.955124,51.074554
-1.22107493851238,51.0281630619435,Winchester District (B),DIS,District,HAMPSHIRE_COUNTY,26,931,64514,17754,E07000094,66107.067,9.628,AA,CIVIL ADMINISTRATION AREA,,,,,-1.221075,51.028163
-1.51065336589401,51.1284351371002,Test Valley District,DIS,District,HAMPSHIRE_COUNTY,30,1016,122191,43511,E07000093,62762.179,3.145,AA,CIVIL ADMINISTRATION AREA,,,,,-1.510653,51.128435
-0.897472005536246,51.2848120992798,Hart District,DIS,District,HAMPSHIRE_COUNTY,40,1054,64242,17486,E07000089,21526.513,0,AA,CIVIL ADMINISTRATION AREA,,,,,-0.897472,51.284812
-1.15949124553094,50.805241268496,Gosport District (B),DIS,District,HAMPSHIRE_COUNTY,73,1077,64132,17378,E07000088,2757.782,221.963,AA,CIVIL ADMINISTRATION AREA,,,,,-1.159491,50.805241
-1.22466093216259,50.8526663271019,Fareham District (B),DIS,District,HAMPSHIRE_COUNTY,79,1096,64300,17544,E07000087,7779.974,356.061,AA,CIVIL ADMINISTRATION AREA,,,,,-1.224661,50.852666
-0.989404114494885,50.8382871680786,Havant District (B),DIS,District,HAMPSHIRE_COUNTY,84,1112,64049,17297,E07000090,7909.948,2372.645,AA,CIVIL ADMINISTRATION AREA,,,,,-0.989404,50.838287
-0.767481447942606,51.2734434791422,Rushmoor District (B),DIS,District,HAMPSHIRE_COUNTY,106,1130,64025,17275,E07000092,3904.512,0,AA,CIVIL ADMINISTRATION AREA,,,,,-0.767481,51.273443
-0.460598680071545,51.6609674008492,Three Rivers District,DIS,District,HERTFORDSHIRE_COUNTY,1,416,44310,3826,E07000102,8882.425,0,AA,CIVIL ADMINISTRATION AREA,,,,,-0.460599,51.660967
-0.281096641866066,51.6772846842506,Hertsmere District (B),DIS,District,HERTFORDSHIRE_COUNTY,2,438,126845,3708,E07000098,10112.811,0,AA,CIVIL ADMINISTRATION AREA,,,,,-0.281097,51.677285
-0.047375276637313,51.7251108873558,Broxbourne District (B),DIS,District,HERTFORDSHIRE_COUNTY,6,451,44103,3623,E07000095,5144.22,0,AA,CIVIL ADMINISTRATION AREA,,,,,-0.047375,51.725111
-0.540876967553578,51.7781824908714,Dacorum District (B),DIS,District,HERTFORDSHIRE_COUNTY,9,496,44140,3923,E07000096,21247.634,0,AA,CIVIL ADMINISTRATION AREA,,,,,-0.540877,51.778182
-0.008257933910302,51.8650560704937,East Hertfordshire District,DIS,District,HERTFORDSHIRE_COUNTY,10,577,44009,3679,E07000242,47566.918,0,AA,CIVIL ADMINISTRATION AREA,,,,,-0.008258,51.865056
-0.342494554551979,51.7720618014209,St. Albans District (B),DIS,District,HERTFORDSHIRE_COUNTY,14,610,44271,3876,E07000240,16120.59,0,AA,CIVIL ADMINISTRATION AREA,,,,,-0.342495,51.772062
-0.194085121791475,51.7668893826535,Welwyn Hatfield District (B),DIS,District,HERTFORDSHIRE_COUNTY,18,637,43968,3728,E07000241,12953.692,0,AA,CIVIL ADMINISTRATION AREA,,,,,-0.194085,51.766889
-0.192702629667169,51.9590931156012,North Hertfordshire District,DIS,District,HERTFORDSHIRE_COUNTY,22,700,44204,3897,E07000099,37538.234,0,AA,CIVIL ADMINISTRATION AREA,,,,,-0.192703,51.959093
-0.403351984429275,51.6680827152417,Watford District (B),DIS,District,HERTFORDSHIRE_COUNTY,39,719,126827,3796,E07000103,2143.032,0,AA,CIVIL ADMINISTRATION AREA,,,,,-0.403352,51.668083
-0.189332336986848,51.9043148955273,Stevenage District (B),DIS,District,HERTFORDSHIRE_COUNTY,95,745,43984,3744,E07000243,2596.93,0,AA,CIVIL ADMINISTRATION AREA,,,,,-0.189332,51.904315
0.430824665270256,51.1143977319318,Tunbridge Wells District (B),DIS,District,KENT_COUNTY,1,692,122248,18650,E07000116,33132.895,0,AA,CIVIL ADMINISTRATION AREA,,,,,0.430825,51.114398
0.993940841781831,51.0537487066857,Shepway District,DIS,District,KENT_COUNTY,3,737,124068,18085,E07000112,36551.523,875.041,AA,CIVIL ADMINISTRATION AREA,,,,,0.993941,51.053749
0.171972319347386,51.2754103188404,Sevenoaks District,DIS,District,KENT_COUNTY,4,795,122320,18593,E07000111,37034.689,0,AA,CIVIL ADMINISTRATION AREA,,,,,0.171972,51.275410
0.35783715346651,51.2736180901051,Tonbridge and Malling District (B),DIS,District,KENT_COUNTY,6,849,122322,18343,E07000115,24097.332,84.801,AA,CIVIL ADMINISTRATION AREA,,,,,0.357837,51.273618
1.34067220999359,51.3544980283946,Thanet District,DIS,District,KENT_COUNTY,7,885,69151,18130,E07000114,11233.888,899.979,AA,CIVIL ADMINISTRATION AREA,,,,,1.340672,51.354498
0.811298200985051,51.1252950994048,Ashford District (B),DIS,District,KENT_COUNTY,8,964,124075,18232,E07000105,58061.731,0,AA,CIVIL ADMINISTRATION AREA,,,,,0.811298,51.125295
1.10162004434262,51.2838396986632,Canterbury District (B),DIS,District,KENT_COUNTY,16,1018,69161,18139,E07000106,32088.931,1200.573,AA,CIVIL ADMINISTRATION AREA,,,,,1.101620,51.283840
1.28924298335669,51.2122903446455,Dover District,DIS,District,KENT_COUNTY,18,1076,68995,17977,E07000108,32082.734,576.119,AA,CIVIL ADMINISTRATION AREA,,,,,1.289243,51.212290
0.580552564475986,51.2349979314732,Maidstone District (B),DIS,District,KENT_COUNTY,23,1147,69248,18224,E07000110,39335.069,1.809,AA,CIVIL ADMINISTRATION AREA,,,,,0.580553,51.234998
0.813237452267328,51.3416742906479,Swale District (B),DIS,District,KENT_COUNTY,24,1211,69266,18242,E07000113,42209.543,4762.876,AA,CIVIL ADMINISTRATION AREA,,,,,0.813237,51.341674
0.253167774584491,51.4314529192711,Dartford District (B),DIS,District,KENT_COUNTY,68,1252,122327,18638,E07000107,7631.039,354.642,AA,CIVIL ADMINISTRATION AREA,,,,,0.253168,51.431453
0.394994174110268,51.4051270458401,Gravesham District (B),DIS,District,KENT_COUNTY,71,1279,122329,18515,E07000109,10495.884,593.871,AA,CIVIL ADMINISTRATION AREA,,,,,0.394994,51.405127
-2.88251083867985,53.6095741360317,West Lancashire District (B),DIS,District,LANCASHIRE_COUNTY,3,610,45636,4912,E07000127,38109.498,3431.106,AA,CIVIL ADMINISTRATION AREA,,,,,-2.882511,53.609574
-2.71484810677727,54.0689700861779,Lancaster District (B),DIS,District,LANCASHIRE_COUNTY,8,679,121923,4925,E07000121,65421.014,7007.677,AA,CIVIL ADMINISTRATION AREA,,,,,-2.714848,54.068970
-2.64788132920982,53.6614832235544,Chorley District (B),DIS,District,LANCASHIRE_COUNTY,10,725,117525,4768,E07000118,20290.544,10.89,AA,CIVIL ADMINISTRATION AREA,,,,,-2.647881,53.661483
-2.710257977286,53.7281327162103,South Ribble District (B),DIS,District,LANCASHIRE_COUNTY,11,758,45736,4834,E07000126,11461.505,165.949,AA,CIVIL ADMINISTRATION AREA,,,,,-2.710258,53.728133
-2.26729943218695,53.6938156540237,Rossendale District (B),DIS,District,LANCASHIRE_COUNTY,14,776,45606,4572,E07000125,13804.081,0,AA,CIVIL ADMINISTRATION AREA,,,,,-2.267299,53.693816
-2.92288332090641,53.7839345499298,Fylde District (B),DIS,District,LANCASHIRE_COUNTY,15,814,124004,4985,E07000119,18263.34,1686.292,AA,CIVIL ADMINISTRATION AREA,,,,,-2.922883,53.783935
-2.69765172664574,53.811795676339,Preston District (B),DIS,District,LANCASHIRE_COUNTY,17,848,45666,4853,E07000123,14294.477,65.112,AA,CIVIL ADMINISTRATION AREA,,,,,-2.697652,53.811796
-2.85397752696824,53.9029825905104,Wyre District (B),DIS,District,LANCASHIRE_COUNTY,19,896,45646,4922,E07000128,32903.022,4691.574,AA,CIVIL ADMINISTRATION AREA,,,,,-2.853978,53.902983
-2.18493037687775,53.8654942855997,Pendle District (B),DIS,District,LANCASHIRE_COUNTY,28,941,123567,43744,E07000122,16938.014,0,AA,CIVIL ADMINISTRATION AREA,,,,,-2.184930,53.865494
-2.44475603674282,53.9072191827923,Ribble Valley District (B),DIS,District,LANCASHIRE_COUNTY,32,1016,45125,4713,E07000124,58447.153,0,AA,CIVIL ADMINISTRATION AREA,,,,,-2.444756,53.907219
-2.38978732856324,53.7586424376209,Hyndburn District (B),DIS,District,LANCASHIRE_COUNTY,69,1046,45572,4627,E07000120,7299.748,0,AA,CIVIL ADMINISTRATION AREA,,,,,-2.389787,53.758642
-2.22194529412514,53.7789355176037,Burnley District (B),DIS,District,LANCASHIRE_COUNTY,75,1074,45600,4566,E07000117,11068.403,0,AA,CIVIL ADMINISTRATION AREA,,,,,-2.221945,53.778936
-1.3910537864862,52.6164825326237,Hinckley and Bosworth District (B),DIS,District,LEICESTERSHIRE_COUNTY,3,481,58185,23555,E07000132,29734.936,0,AA,CIVIL ADMINISTRATION AREA,,,,,-1.391054,52.616483
-1.40512261617723,52.7531176777496,North West Leicestershire District,DIS,District,LEICESTERSHIRE_COUNTY,5,553,58246,23615,E07000134,27932.798,0,AA,CIVIL ADMINISTRATION AREA,,,,,-1.405123,52.753118
-0.856218552940557,52.7963818985711,Melton District (B),DIS,District,LEICESTERSHIRE_COUNTY,9,597,57980,23352,E07000133,48138.047,0,AA,CIVIL ADMINISTRATION AREA,,,,,-0.856219,52.796382
-1.0081235572394,52.5393096912732,Harborough District,DIS,District,LEICESTERSHIRE_COUNTY,10,715,57907,23279,E07000131,59269.191,0,AA,CIVIL ADMINISTRATION AREA,,,,,-1.008124,52.539310
-1.22196189948472,52.5715076379483,Blaby District,DIS,District,LEICESTERSHIRE_COUNTY,18,761,58216,23585,E07000129,13046.876,0,AA,CIVIL ADMINISTRATION AREA,,,,,-1.221962,52.571508
-1.14613584949597,52.7370068291277,Charnwood District (B),DIS,District,LEICESTERSHIRE_COUNTY,27,830,58081,23452,E07000130,27904.229,0,AA,CIVIL ADMINISTRATION AREA,,,,,-1.146136,52.737007
-1.09340728925905,52.5871366096122,Oadby and Wigston District (B),DIS,District,LEICESTERSHIRE_COUNTY,69,850,58042,23413,E07000135,2352.607,0,AA,CIVIL ADMINISTRATION AREA,,,,,-1.093407,52.587137
-0.477114656627097,53.3927547512798,West Lindsey District,DIS,District,LINCOLNSHIRE_COUNTY,6,904,46484,43527,E07000142,115765.221,192.014,AA,CIVIL ADMINISTRATION AREA,,,,,-0.477115,53.392755
-0.51784258110572,52.8542910657927,South Kesteven District,DIS,District,LINCOLNSHIRE_COUNTY,11,1020,46463,5557,E07000141,94258.573,0,AA,CIVIL ADMINISTRATION AREA,,,,,-0.517843,52.854291
-0.032290796048039,52.7975578255442,South Holland District,DIS,District,LINCOLNSHIRE_COUNTY,18,1065,46415,5599,E07000140,81550.359,6459.154,AA,CIVIL ADMINISTRATION AREA,,,,,-0.032291,52.797558
-0.022346841675435,52.9741577482908,Boston District (B),DIS,District,LINCOLNSHIRE_COUNTY,22,1101,45848,5306,E07000136,39779.284,3290.284,AA,CIVIL ADMINISTRATION AREA,,,,,-0.022347,52.974158
-0.445925952845337,53.0810804556385,North Kesteven District,DIS,District,LINCOLNSHIRE_COUNTY,27,1207,46448,5542,E07000139,92247.132,0,AA,CIVIL ADMINISTRATION AREA,,,,,-0.445926,53.081080
0.030336695860719,53.2493788352808,East Lindsey District,DIS,District,LINCOLNSHIRE_COUNTY,33,1434,45859,5317,E07000137,183107.284,6606.824,AA,CIVIL ADMINISTRATION AREA,,,,,0.030337,53.249379
-0.554952887891945,53.2247266040567,Lincoln District (B),DIS,District,LINCOLNSHIRE_COUNTY,111,1467,46264,5716,E07000138,3569.019,0,AA,CIVIL ADMINISTRATION AREA,,,,,-0.554953,53.224727
1.66136224983186,52.6406973529768,Great Yarmouth District (B),DIS,District,NORFOLK_COUNTY,7,1018,47592,6392,E07000145,18247.202,800.133,AA,CIVIL ADMINISTRATION AREA,,,,,1.661362,52.640697
1.27599718902909,52.5145732308996,South Norfolk District,DIS,District,NORFOLK_COUNTY,8,1174,47297,6724,E07000149,90890.662,120.144,AA,CIVIL ADMINISTRATION AREA,,,,,1.275997,52.514573
0.470607672283894,52.7267941885816,King's Lynn and West Norfolk District (B),DIS,District,NORFOLK_COUNTY,14,1324,47869,7016,E07000146,152765.876,8881.648,AA,CIVIL ADMINISTRATION AREA,,,,,0.470608,52.726794
0.837275828900916,52.5879295038644,Breckland District,DIS,District,NORFOLK_COUNTY,21,1469,47905,6917,E07000143,130511.665,0,AA,CIVIL ADMINISTRATION AREA,,,,,0.837276,52.587930
1.2828005554729,52.6318297286766,Norwich District (B),DIS,District,NORFOLK_COUNTY,106,1600,47246,6759,E07000148,4055.412,153.063,AA,CIVIL ADMINISTRATION AREA,,,,,1.282801,52.631830
-1.04288891943322,52.1226515389212,South Northamptonshire District,DIS,District,NORTHAMPTONSHIRE_COUNTY,11,587,123795,7306,E07000155,63402.325,0,AA,CIVIL ADMINISTRATION AREA,,,,,-1.042889,52.122652
-0.523479747816108,52.4575472565762,East Northamptonshire District,DIS,District,NORTHAMPTONSHIRE_COUNTY,17,670,48599,7301,E07000152,50978.721,0,AA,CIVIL ADMINISTRATION AREA,,,,,-0.523480,52.457547
-1.0482466796501,52.315986379242,Daventry District,DIS,District,NORTHAMPTONSHIRE_COUNTY,20,762,123794,7451,E07000151,66560.051,0,AA,CIVIL ADMINISTRATION AREA,,,,,-1.048247,52.315986
-0.712339804089749,52.2877846154346,Wellingborough District (B),DIS,District,NORTHAMPTONSHIRE_COUNTY,21,798,48654,7356,E07000156,16303.655,0,AA,CIVIL ADMINISTRATION AREA,,,,,-0.712340,52.287785
-0.765429102752356,52.426144588055,Kettering District (B),DIS,District,NORTHAMPTONSHIRE_COUNTY,25,846,124234,7408,E07000153,23348.993,0,AA,CIVIL ADMINISTRATION AREA,,,,,-0.765429,52.426145
-0.886910146942093,52.2412505625083,Northampton District (B),DIS,District,NORTHAMPTONSHIRE_COUNTY,51,895,48415,7473,E07000154,8077.189,0,AA,CIVIL ADMINISTRATION AREA,,,,,-0.886910,52.241251
-0.69591855635671,52.4990729804496,Corby District (B),DIS,District,NORTHAMPTONSHIRE_COUNTY,94,924,48585,7288,E07000150,8028.095,0,AA,CIVIL ADMINISTRATION AREA,,,,,-0.695919,52.499073
-0.63477015086965,54.3664286735873,Scarborough District (B),DIS,District,NORTH_YORKSHIRE_COUNTY,1,1037,60127,21355,E07000168,82625.345,976.648,AA,CIVIL ADMINISTRATION AREA,,,,,-0.634770,54.366429
-1.1346806829269,53.787052015666,Selby District,DIS,District,NORTH_YORKSHIRE_COUNTY,2,1131,59823,21055,E07000169,60222.309,291.232,AA,CIVIL ADMINISTRATION AREA,,,,,-1.134681,53.787052
-2.17425103759148,54.0798270578929,Craven District,DIS,District,NORTH_YORKSHIRE_COUNTY,3,1221,60470,21698,E07000163,117880.738,0,AA,CIVIL ADMINISTRATION AREA,,,,,-2.174251,54.079827
-1.93432733711851,54.3615419165851,Richmondshire District,DIS,District,NORTH_YORKSHIRE_COUNTY,11,1351,60760,21986,E07000166,131870.729,0,AA,CIVIL ADMINISTRATION AREA,,,,,-1.934327,54.361542
-1.59553909540616,54.0671021644091,Harrogate District (B),DIS,District,NORTH_YORKSHIRE_COUNTY,13,1528,60262,21490,E07000165,130912.749,0,AA,CIVIL ADMINISTRATION AREA,,,,,-1.595539,54.067102
-0.852007564992174,54.210492457467,Ryedale District,DIS,District,NORTH_YORKSHIRE_COUNTY,15,1664,60062,21291,E07000167,150659.381,0,AA,CIVIL ADMINISTRATION AREA,,,,,-0.852008,54.210492
-1.3190877808148,54.2867781828855,Hambleton District,DIS,District,NORTH_YORKSHIRE_COUNTY,18,1861,60254,21482,E07000164,131122.818,0,AA,CIVIL ADMINISTRATION AREA,,,,,-1.319088,54.286778
-0.958916612483636,53.3327708059114,Bassetlaw District,DIS,District,NOTTINGHAMSHIRE_COUNTY,2,561,48857,8122,E07000171,63949.282,168.898,AA,CIVIL ADMINISTRATION AREA,,,,,-0.958917,53.332771
-1.03773512226656,52.9008472876331,Rushcliffe District (B),DIS,District,NOTTINGHAMSHIRE_COUNTY,4,648,124210,7731,E07000176,40923.148,0,AA,CIVIL ADMINISTRATION AREA,,,,,-1.037735,52.900847
-1.1193100372907,53.0283720445857,Gedling District (B),DIS,District,NOTTINGHAMSHIRE_COUNTY,5,680,49007,7914,E07000173,11998.161,0,AA,CIVIL ADMINISTRATION AREA,,,,,-1.119310,53.028372
-1.25915134440912,53.0922584868106,Ashfield District,DIS,District,NOTTINGHAMSHIRE_COUNTY,8,709,48973,7969,E07000170,10955.792,0,AA,CIVIL ADMINISTRATION AREA,,,,,-1.259151,53.092258
-0.919744263230937,53.1239503813418,Newark and Sherwood District,DIS,District,NOTTINGHAMSHIRE_COUNTY,16,818,48834,8100,E07000175,65183.548,49.489,AA,CIVIL ADMINISTRATION AREA,,,,,-0.919744,53.123950
-1.26209487566125,52.9764211266173,Broxtowe District (B),DIS,District,NOTTINGHAMSHIRE_COUNTY,26,853,49001,7997,E07000172,8009.88,0,AA,CIVIL ADMINISTRATION AREA,,,,,-1.262095,52.976421
-1.17278695680182,53.1707150352881,Mansfield District,DIS,District,NOTTINGHAMSHIRE_COUNTY,60,905,48816,8167,E07000174,7669.688,0,AA,CIVIL ADMINISTRATION AREA,,,,,-1.172787,53.170715
-1.4416737197868,51.634232835582,Vale of White Horse District,DIS,District,OXFORDSHIRE_COUNTY,11,595,49373,8439,E07000180,57864.468,0,AA,CIVIL ADMINISTRATION AREA,,,,,-1.441674,51.634233
-1.07141234948107,51.6337493762232,South Oxfordshire District,DIS,District,OXFORDSHIRE_COUNTY,13,705,49545,8253,E07000179,67853.708,0,AA,CIVIL ADMINISTRATION AREA,,,,,-1.071412,51.633749
-1.2755951737655,51.9587832821676,Cherwell District,DIS,District,OXFORDSHIRE_COUNTY,24,807,49324,8504,E07000177,58874.116,0,AA,CIVIL ADMINISTRATION AREA,,,,,-1.275595,51.958783
-1.50693023263111,51.8375698085049,West Oxfordshire District,DIS,District,OXFORDSHIRE_COUNTY,29,919,70669,8571,E07000181,71442.184,0,AA,CIVIL ADMINISTRATION AREA,,,,,-1.506930,51.837570
-1.24096293881419,51.7545866322384,Oxford District (B),DIS,District,OXFORDSHIRE_COUNTY,80,959,49382,8448,E07000178,4560.289,0,AA,CIVIL ADMINISTRATION AREA,,,,,-1.240963,51.754587
-3.49046464229236,51.13381775871,West Somerset District,DIS,District,SOMERSET_COUNTY,2,585,62049,10687,E07000191,74698.337,2008.582,AA,CIVIL ADMINISTRATION AREA,,,,,-3.490465,51.133818
-2.5446553197978,51.2029126023629,Mendip District,DIS,District,SOMERSET_COUNTY,3,683,61856,43462,E07000187,73943.545,0,AA,CIVIL ADMINISTRATION AREA,,,,,-2.544655,51.202913
-3.15721679420722,51.0105284703446,Taunton Deane District (B),DIS,District,SOMERSET_COUNTY,6,762,61826,10370,E07000190,46250.304,13.583,AA,CIVIL ADMINISTRATION AREA,,,,,-3.157217,51.010528
-2.70989034178727,50.9881496072174,South Somerset District,DIS,District,SOMERSET_COUNTY,9,925,61840,10495,E07000189,95905.811,1.79,AA,CIVIL ADMINISTRATION AREA,,,,,-2.709890,50.988150
-2.95268838251996,51.1847134256109,Sedgemoor District,DIS,District,SOMERSET_COUNTY,12,1005,61964,10575,E07000188,60587.4,4151.555,AA,CIVIL ADMINISTRATION AREA,,,,,-2.952688,51.184713
-1.98125403198249,53.0793149000295,Staffordshire Moorlands District,DIS,District,STAFFORDSHIRE_COUNTY,2,497,123939,15068,E07000198,57584.983,0,AA,CIVIL ADMINISTRATION AREA,,,,,-1.981254,53.079315
-2.17680913491133,52.6253959734304,South Staffordshire District,DIS,District,STAFFORDSHIRE_COUNTY,4,553,120376,14855,E07000196,40732.224,0,AA,CIVIL ADMINISTRATION AREA,,,,,-2.176809,52.625396
-1.8049153165071,52.6881693373995,Lichfield District,DIS,District,STAFFORDSHIRE_COUNTY,6,605,54987,14797,E07000194,33129.448,0,AA,CIVIL ADMINISTRATION AREA,,,,,-1.804915,52.688169
-2.31887473651597,52.99312382851,Newcastle-under-Lyme District (B),DIS,District,STAFFORDSHIRE_COUNTY,13,645,55064,15178,E07000195,21095.733,0,AA,CIVIL ADMINISTRATION AREA,,,,,-2.318875,52.993124
-2.17649681286651,52.8481535163021,Stafford District (B),DIS,District,STAFFORDSHIRE_COUNTY,22,710,54819,14892,E07000197,59817.223,0,AA,CIVIL ADMINISTRATION AREA,,,,,-2.176497,52.848154
-1.81214150542834,52.8632680738132,East Staffordshire District (B),DIS,District,STAFFORDSHIRE_COUNTY,25,772,124961,15064,E07000193,38998.502,0,AA,CIVIL ADMINISTRATION AREA,,,,,-1.812142,52.863268
-1.98023186437335,52.7123826139305,Cannock Chase District,DIS,District,STAFFORDSHIRE_COUNTY,45,802,70783,14869,E07000192,7888.258,0,AA,CIVIL ADMINISTRATION AREA,,,,,-1.980232,52.712383
-1.67784533079534,52.6264282568918,Tamworth District (B),DIS,District,STAFFORDSHIRE_COUNTY,183,835,55003,14727,E07000199,3085.073,0,AA,CIVIL ADMINISTRATION AREA,,,,,-1.677845,52.626428
1.58452215473236,52.4193635097623,Waveney District,DIS,District,SUFFOLK_COUNTY,1,784,55331,15440,E07000206,37478.634,465.466,AA,CIVIL ADMINISTRATION AREA,,,,,1.584522,52.419364
0.915562364350182,52.0505601625974,Babergh District,DIS,District,SUFFOLK_COUNTY,5,891,55585,15692,E07000200,61204.129,1682.672,AA,CIVIL ADMINISTRATION AREA,,,,,0.915562,52.050560
1.41175922617832,52.1627330728127,Suffolk Coastal District,DIS,District,SUFFOLK_COUNTY,9,1038,55401,15508,E07000205,92070.049,2897.076,AA,CIVIL ADMINISTRATION AREA,,,,,1.411759,52.162733
0.674012330537854,52.2333864515276,St. Edmundsbury District (B),DIS,District,SUFFOLK_COUNTY,10,1150,55540,15647,E07000204,65696.502,0,AA,CIVIL ADMINISTRATION AREA,,,,,0.674012,52.233386
0.531502091549747,52.3547590549387,Forest Heath District,DIS,District,SUFFOLK_COUNTY,12,1188,55762,15867,E07000201,37771.094,0,AA,CIVIL ADMINISTRATION AREA,,,,,0.531502,52.354759
1.09241715285087,52.2468214417936,Mid Suffolk District,DIS,District,SUFFOLK_COUNTY,20,1346,55567,15674,E07000203,87107.07,0,AA,CIVIL ADMINISTRATION AREA,,,,,1.092417,52.246821
1.15977910744548,52.0558772304952,Ipswich District (B),DIS,District,SUFFOLK_COUNTY,44,1371,55204,15314,E07000202,4030.023,77.763,AA,CIVIL ADMINISTRATION AREA,,,,,1.159779,52.055877
-0.632666179020981,51.1498291952033,Waverley District (B),DIS,District,SURREY_COUNTY,5,423,53333,14119,E07000216,34517.026,0,AA,CIVIL ADMINISTRATION AREA,,,,,-0.632666,51.149829
-0.043406640022638,51.2270321426348,Tandridge District,DIS,District,SURREY_COUNTY,14,469,122256,13870,E07000215,24819.463,0,AA,CIVIL ADMINISTRATION AREA,,,,,-0.043407,51.227032
-0.560770116938502,51.3138786318775,Woking District (B),DIS,District,SURREY_COUNTY,17,482,53249,14192,E07000217,6360.361,0,AA,CIVIL ADMINISTRATION AREA,,,,,-0.560770,51.313879
-0.670548587483895,51.3429283889217,Surrey Heath District (B),DIS,District,SURREY_COUNTY,18,506,53365,14064,E07000214,9509.303,0,AA,CIVIL ADMINISTRATION AREA,,,,,-0.670549,51.342928
-0.541310299597914,51.3937870492949,Runnymede District (B),DIS,District,SURREY_COUNTY,22,524,53361,14060,E07000212,7804.068,0,AA,CIVIL ADMINISTRATION AREA,,,,,-0.541310,51.393787
-0.561645540474522,51.2478000523623,Guildford District (B),DIS,District,SURREY_COUNTY,26,573,53390,14002,E07000209,27093.113,0,AA,CIVIL ADMINISTRATION AREA,,,,,-0.561646,51.247800
-0.191853698833095,51.2532004676376,Reigate and Banstead District (B),DIS,District,SURREY_COUNTY,27,596,125711,13893,E07000211,12914.397,0,AA,CIVIL ADMINISTRATION AREA,,,,,-0.191854,51.253200
-0.325115974100289,51.2122650759372,Mole Valley District,DIS,District,SURREY_COUNTY,36,635,53551,44474,E07000210,25832.097,0,AA,CIVIL ADMINISTRATION AREA,,,,,-0.325116,51.212265
-0.392172505200676,51.3571322656258,Elmbridge District (B),DIS,District,SURREY_COUNTY,39,655,53457,13981,E07000207,9633.43,0,AA,CIVIL ADMINISTRATION AREA,,,,,-0.392173,51.357132
-0.467983539151808,51.424802544055,Spelthorne District (B),DIS,District,SURREY_COUNTY,41,670,53298,14169,E07000213,5116.143,0,AA,CIVIL ADMINISTRATION AREA,,,,,-0.467984,51.424803
-0.261448445373628,51.3391668614689,Epsom and Ewell District (B),DIS,District,SURREY_COUNTY,117,705,125714,13949,E07000208,3407.917,0,AA,CIVIL ADMINISTRATION AREA,,,,,-0.261448,51.339167
-1.62805412102475,52.5474803426565,North Warwickshire District (B),DIS,District,WARWICKSHIRE_COUNTY,2,437,58670,10124,E07000218,28426.361,0,AA,CIVIL ADMINISTRATION AREA,,,,,-1.628054,52.547480
-1.32829424489151,52.3843614347658,Rugby District (B),DIS,District,WARWICKSHIRE_COUNTY,9,499,58430,9885,E07000220,35355.733,0,AA,CIVIL ADMINISTRATION AREA,,,,,-1.328294,52.384361
-1.5846650874038,52.3100027626075,Warwick District,DIS,District,WARWICKSHIRE_COUNTY,11,554,58361,43516,E07000222,28288.23,0,AA,CIVIL ADMINISTRATION AREA,,,,,-1.584665,52.310003
-1.62283893756171,52.1787857411569,Stratford-on-Avon District,DIS,District,WARWICKSHIRE_COUNTY,15,706,58488,9943,E07000221,97786.904,0,AA,CIVIL ADMINISTRATION AREA,,,,,-1.622839,52.178786
-1.47587145003229,52.5011285535663,Nuneaton and Bedworth District (B),DIS,District,WARWICKSHIRE_COUNTY,74,743,58602,10057,E07000219,7895.029,0,AA,CIVIL ADMINISTRATION AREA,,,,,-1.475871,52.501129
-0.56791475064694,50.8410058992374,Arun District,DIS,District,WEST_SUSSEX_COUNTY,2,428,56228,16438,E07000224,22428.09,334.825,AA,CIVIL ADMINISTRATION AREA,,,,,-0.567915,50.841006
-0.298595942597829,50.8444773372868,Adur District,DIS,District,WEST_SUSSEX_COUNTY,3,447,56008,16223,E07000223,4356.388,163.412,AA,CIVIL ADMINISTRATION AREA,,,,,-0.298596,50.844477
-0.74219914498931,50.9375435587103,Chichester District,DIS,District,WEST_SUSSEX_COUNTY,10,547,56234,16444,E07000225,81187.326,2565.736,AA,CIVIL ADMINISTRATION AREA,,,,,-0.742199,50.937544
-0.127051759590606,51.0208427175213,Mid Sussex District,DIS,District,WEST_SUSSEX_COUNTY,12,599,55996,16211,E07000228,33402.929,0,AA,CIVIL ADMINISTRATION AREA,,,,,-0.127052,51.020843
-0.366332750162119,50.9937591245771,Horsham District,DIS,District,WEST_SUSSEX_COUNTY,23,659,122392,16340,E07000227,53096.211,69.12,AA,CIVIL ADMINISTRATION AREA,,,,,-0.366333,50.993759
-0.39581311106298,50.8292056638473,Worthing District (B),DIS,District,WEST_SUSSEX_COUNTY,53,684,56047,16261,E07000229,3378.267,126.086,AA,CIVIL ADMINISTRATION AREA,,,,,-0.395813,50.829206
-0.182034620662678,51.1254706289425,Crawley District (B),DIS,District,WEST_SUSSEX_COUNTY,116,709,56143,16356,E07000226,4497.118,0,AA,CIVIL ADMINISTRATION AREA,,,,,-0.182035,51.125471
-2.34466528986442,52.1827580998277,Malvern Hills District,DIS,District,WORCESTERSHIRE_COUNTY,16,482,43350,3292,E07000235,57707.1,0,AA,CIVIL ADMINISTRATION AREA,,,,,-2.344665,52.182758
-2.27466694629843,52.3795765418643,Wyre Forest District,DIS,District,WORCESTERSHIRE_COUNTY,22,511,43360,3214,E07000239,19540.376,0,AA,CIVIL ADMINISTRATION AREA,,,,,-2.274667,52.379577
-2.05081652574215,52.1641873116913,Wychavon District,DIS,District,WORCESTERSHIRE_COUNTY,24,637,43452,3127,E07000238,66354.195,0,AA,CIVIL ADMINISTRATION AREA,,,,,-2.050817,52.164187
-2.01601502251491,52.3617512779792,Bromsgrove District,DIS,District,WORCESTERSHIRE_COUNTY,31,690,43493,3080,E07000234,21696.846,0,AA,CIVIL ADMINISTRATION AREA,,,,,-2.016015,52.361751
-2.21132422386231,52.1966926681994,Worcester District (B),DIS,District,WORCESTERSHIRE_COUNTY,92,714,43459,3134,E07000237,3327.817,0,AA,CIVIL ADMINISTRATION AREA,,,,,-2.211324,52.196693
-1.95186030416632,52.2822857815008,Redditch District (B),DIS,District,WORCESTERSHIRE_COUNTY,104,730,43498,3085,E07000236,5425.095,0,AA,CIVIL ADMINISTRATION AREA,,,,,-1.951860,52.282286
-0.286914476978423,51.3878937615771,Kingston upon Thames London Boro,LBO,London Borough,GREATER_LONDON_AUTHORITY,3,754,50448,11412,E09000021,3726.117,0,AA,CIVIL ADMINISTRATION AREA,,,,,-0.286914,51.387894
-0.08716502528102,51.3553178722879,Croydon London Boro,LBO,London Borough,GREATER_LONDON_AUTHORITY,6,781,51330,10896,E09000008,8649.441,0,AA,CIVIL ADMINISTRATION AREA,,,,,-0.087165,51.355318
0.051537722125741,51.3719842011944,Bromley London Boro,LBO,London Borough,GREATER_LONDON_AUTHORITY,9,805,50904,10772,E09000006,15013.487,0,AA,CIVIL ADMINISTRATION AREA,,,,,0.051538,51.371984
-0.366161723387117,51.4684982425752,Hounslow London Boro,LBO,London Borough,GREATER_LONDON_AUTHORITY,12,828,51138,11489,E09000018,5658.541,60.755,AA,CIVIL ADMINISTRATION AREA,,,,,-0.366162,51.468498
-0.331018584402798,51.522476106951,Ealing London Boro,LBO,London Borough,GREATER_LONDON_AUTHORITY,14,853,50523,11399,E09000009,5554.428,0,AA,CIVIL ADMINISTRATION AREA,,,,,-0.331019,51.522476
0.220426730596223,51.5631006823908,Havering London Boro,LBO,London Borough,GREATER_LONDON_AUTHORITY,18,874,50851,10807,E09000016,11445.735,210.763,AA,CIVIL ADMINISTRATION AREA,,,,,0.220427,51.563101
-0.445662024762802,51.5414718628076,Hillingdon London Boro,LBO,London Borough,GREATER_LONDON_AUTHORITY,20,898,51011,11539,E09000017,11570.063,0,AA,CIVIL ADMINISTRATION AREA,,,,,-0.445662,51.541472
-0.341274219753761,51.5977187419952,Harrow London Boro,LBO,London Borough,GREATER_LONDON_AUTHORITY,24,923,50515,11391,E09000015,5046.33,0,AA,CIVIL ADMINISTRATION AREA,,,,,-0.341274,51.597719
-0.267811319617915,51.5585544078506,Brent London Boro,LBO,London Borough,GREATER_LONDON_AUTHORITY,26,946,50485,11447,E09000005,4323.27,0,AA,CIVIL ADMINISTRATION AREA,,,,,-0.267811,51.558554
-0.210017360634454,51.6160186262359,Barnet London Boro,LBO,London Borough,GREATER_LONDON_AUTHORITY,29,970,119320,11378,E09000003,8674.837,0,AA,CIVIL ADMINISTRATION AREA,,,,,-0.210017,51.616019
-0.11830907487038,51.4538283480687,Lambeth London Boro,LBO,London Borough,GREATER_LONDON_AUTHORITY,31,993,50792,11144,E09000022,2724.94,43.927,AA,CIVIL ADMINISTRATION AREA,,,,,-0.118309,51.453828
-0.0740561743503,51.4742295421112,Southwark London Boro,LBO,London Borough,GREATER_LONDON_AUTHORITY,34,1017,51271,11013,E09000028,2991.34,105.139,AA,CIVIL ADMINISTRATION AREA,,,,,-0.074056,51.474230
-0.020285773173378,51.4482787622532,Lewisham London Boro,LBO,London Borough,GREATER_LONDON_AUTHORITY,36,1037,51209,11039,E09000023,3531.706,16.795,AA,CIVIL ADMINISTRATION AREA,,,,,-0.020286,51.448279
0.055542713075308,51.4744284769425,Greenwich London Boro,LBO,London Borough,GREATER_LONDON_AUTHORITY,39,1057,50909,10777,E09000011,5044.19,310.785,AA,CIVIL ADMINISTRATION AREA,,,,,0.055543,51.474428
0.142347998884387,51.4608709651484,Bexley London Boro,LBO,London Borough,GREATER_LONDON_AUTHORITY,42,1080,50891,10759,E09000004,6428.649,371.119,AA,CIVIL ADMINISTRATION AREA,,,,,0.142348,51.460871
-0.087264503527,51.6509919666046,Enfield London Boro,LBO,London Borough,GREATER_LONDON_AUTHORITY,46,1105,50541,11329,E09000010,8220.025,0,AA,CIVIL ADMINISTRATION AREA,,,,,-0.087265,51.650992
-0.012645327018894,51.5940220491323,Waltham Forest London Boro,LBO,London Borough,GREATER_LONDON_AUTHORITY,49,1128,50687,11213,E09000031,3880.793,0,AA,CIVIL ADMINISTRATION AREA,,,,,-0.012645,51.594022
0.075862724615449,51.5856554584532,Redbridge London Boro,LBO,London Borough,GREATER_LONDON_AUTHORITY,51,1151,51301,10955,E09000026,5644.225,2.3,AA,CIVIL ADMINISTRATION AREA,,,,,0.075863,51.585655
-0.177570216819014,51.362088869648,Sutton London Boro,LBO,London Borough,GREATER_LONDON_AUTHORITY,55,1171,50829,10873,E09000029,4384.698,0,AA,CIVIL ADMINISTRATION AREA,,,,,-0.177570,51.362089
-0.312370543150998,51.4427454448863,Richmond upon Thames London Boro,LBO,London Borough,GREATER_LONDON_AUTHORITY,57,1191,50463,11427,E09000027,5876.111,135.443,AA,CIVIL ADMINISTRATION AREA,,,,,-0.312371,51.442745
-0.197246460893621,51.4099498129378,Merton London Boro,LBO,London Borough,GREATER_LONDON_AUTHORITY,59,1213,122401,10995,E09000024,3762.466,0,AA,CIVIL ADMINISTRATION AREA,,,,,-0.197246,51.409950
-0.186190160408706,51.4519733864543,Wandsworth London Boro,LBO,London Borough,GREATER_LONDON_AUTHORITY,62,1236,122400,11127,E09000032,3522.022,95.679,AA,CIVIL ADMINISTRATION AREA,,,,,-0.186190,51.451973
-0.220777564688783,51.49500437186,Hammersmith and Fulham London Boro,LBO,London Borough,GREATER_LONDON_AUTHORITY,70,1254,50647,11259,E09000013,1715.409,75.648,AA,CIVIL ADMINISTRATION AREA,,,,,-0.220778,51.495004
-0.192210753674435,51.5012043682214,Kensington and Chelsea London Boro,LBO,London Borough,GREATER_LONDON_AUTHORITY,73,1275,50658,11270,E09000020,1238.379,25.994,AA,CIVIL ADMINISTRATION AREA,,,,,-0.192211,51.501204
-0.160459501767729,51.5134424743185,City of Westminster London Boro,LBO,London Borough,GREATER_LONDON_AUTHORITY,74,1297,50724,11164,E09000033,2203.005,54.308,AA,CIVIL ADMINISTRATION AREA,,,,,-0.160460,51.513442
-0.157415055210981,51.5463924773178,Camden London Boro,LBO,London Borough,GREATER_LONDON_AUTHORITY,77,1317,50632,11244,E09000007,2178.932,0,AA,CIVIL ADMINISTRATION AREA,,,,,-0.157415,51.546392
-0.0346574437335,51.5157389475823,Tower Hamlets London Boro,LBO,London Borough,GREATER_LONDON_AUTHORITY,82,1339,50746,11185,E09000030,2157.501,178.867,AA,CIVIL ADMINISTRATION AREA,,,,,-0.034657,51.515739
-0.110246259628017,51.5484833791523,Islington London Boro,LBO,London Borough,GREATER_LONDON_AUTHORITY,84,1357,50581,11281,E09000019,1485.664,0,AA,CIVIL ADMINISTRATION AREA,,,,,-0.110246,51.548483
-0.063315274046549,51.5522648557565,Hackney London Boro,LBO,London Borough,GREATER_LONDON_AUTHORITY,86,1380,50673,11199,E09000012,1904.902,0,AA,CIVIL ADMINISTRATION AREA,,,,,-0.063315,51.552265
-0.107472668044579,51.5903739661294,Haringey London Boro,LBO,London Borough,GREATER_LONDON_AUTHORITY,88,1401,119322,11290,E09000014,2959.837,0,AA,CIVIL ADMINISTRATION AREA,,,,,-0.107473,51.590374
0.037542590310573,51.5268871578136,Newham London Boro,LBO,London Borough,GREATER_LONDON_AUTHORITY,91,1423,51363,10929,E09000025,3857.806,237.637,AA,CIVIL ADMINISTRATION AREA,,,,,0.037543,51.526887
0.133164404812875,51.5439550151075,Barking and Dagenham London Boro,LBO,London Borough,GREATER_LONDON_AUTHORITY,93,1442,51295,10949,E09000002,3779.934,169.15,AA,CIVIL ADMINISTRATION AREA,,,,,0.133164,51.543955
-0.092437864269825,51.5144139930898,City and County of the City of London,LBO,London Borough,GREATER_LONDON_AUTHORITY,552,1469,51187,11105,E09000001,314.942,24.546,AA,CIVIL ADMINISTRATION AREA,,,,,-0.092438,51.514414
-1.5325745839824,53.535870549246,Barnsley District (B),MTD,Metropolitan District,BARNSLEY_DISTRICT_(B),6,80,50242,9182,E08000016,32907.763,0,AA,CIVIL ADMINISTRATION AREA,,,,,-1.532575,53.535871
-1.87480236896549,52.4885472774434,Birmingham District (B),MTD,Metropolitan District,BIRMINGHAM_DISTRICT_(B),9,88,40111,18,E08000025,26779.121,0,AA,CIVIL ADMINISTRATION AREA,,,,,-1.874802,52.488547
-2.46697020374825,53.5786323938234,Bolton District (B),MTD,Metropolitan District,BOLTON_DISTRICT_(B),13,50,56602,18832,E08000001,13979.21,0,AA,CIVIL ADMINISTRATION AREA,,,,,-2.466970,53.578632
-1.85467130099316,53.8446704690617,Bradford District (B),MTD,Metropolitan District,BRADFORD_DISTRICT_(B),2,105,61045,16726,E08000032,36641.986,0,AA,CIVIL ADMINISTRATION AREA,,,,,-1.854671,53.844670
-2.31255338438043,53.5878391871708,Bury District (B),MTD,Metropolitan District,BURY_DISTRICT_(B),9,38,56616,18846,E08000002,9946.009,0,AA,CIVIL ADMINISTRATION AREA,,,,,-2.312553,53.587839
-1.97341263348554,53.7211799362676,Calderdale District (B),MTD,Metropolitan District,CALDERDALE_DISTRICT_(B),11,52,61033,16714,E08000033,36396.104,0,AA,CIVIL ADMINISTRATION AREA,,,,,-1.973413,53.721180
-2.12099146044709,52.5891905126746,City of Wolverhampton District (B),MTD,Metropolitan District,CITY_OF_WOLVERHAMPTON_DISTRICT_(B),3,44,71123,156,E08000031,6943.665,0,AA,CIVIL ADMINISTRATION AREA,,,,,-2.120991,52.589191
-1.51975030927446,52.4168684057101,Coventry District (B),MTD,Metropolitan District,COVENTRY_DISTRICT_(B),12,46,40128,33,E08000026,9863.907,0,AA,CIVIL ADMINISTRATION AREA,,,,,-1.519750,52.416868
-1.09576434557043,53.5443040990656,Doncaster District (B),MTD,Metropolitan District,DONCASTER_DISTRICT_(B),17,130,50410,9082,E08000017,56855.102,52.907,AA,CIVIL ADMINISTRATION AREA,,,,,-1.095764,53.544304
-2.10873612673043,52.4828506734923,Dudley District (B),MTD,Metropolitan District,DUDLEY_DISTRICT_(B),18,52,40070,109,E08000027,9795.819,0,AA,CIVIL ADMINISTRATION AREA,,,,,-2.108736,52.482851
-1.68289087591638,54.9353695184399,Gateshead District (B),MTD,Metropolitan District,GATESHEAD_DISTRICT_(B),8,51,50158,9716,E08000037,14407.989,172.067,AA,CIVIL ADMINISTRATION AREA,,,,,-1.682891,54.935370
-1.76330731304279,53.6273565607723,Kirklees District (B),MTD,Metropolitan District,KIRKLEES_DISTRICT_(B),11,59,60983,16665,E08000034,40855.166,0,AA,CIVIL ADMINISTRATION AREA,,,,,-1.763307,53.627357
-2.83403734566983,53.4251005708756,Knowsley District (B),MTD,Metropolitan District,KNOWSLEY_DISTRICT_(B),6,45,125692,44503,E08000011,8650.007,0,AA,CIVIL ADMINISTRATION AREA,,,,,-2.834037,53.425101
-1.50601636732604,53.8257464036485,Leeds District (B),MTD,Metropolitan District,LEEDS_DISTRICT_(B),11,147,60993,16675,E08000035,55170.639,0,AA,CIVIL ADMINISTRATION AREA,,,,,-1.506016,53.825746
-2.91700762999132,53.3954521527529,Liverpool District (B),MTD,Metropolitan District,LIVERPOOL_DISTRICT_(B),8,64,46674,5974,E08000012,13353.38,2169.823,AA,CIVIL ADMINISTRATION AREA,,,,,-2.917008,53.395452
-2.23252368767555,53.4514844056967,Manchester District (B),MTD,Metropolitan District,MANCHESTER_DISTRICT_(B),4,70,56591,18821,E08000003,11564.826,0,AA,CIVIL ADMINISTRATION AREA,,,,,-2.232524,53.451484
-1.65782009987047,55.0076702483357,Newcastle upon Tyne District (B),MTD,Metropolitan District,NEWCASTLE_UPON_TYNE_DISTRICT_(B),14,70,50046,9784,E08000021,11511.782,166.154,AA,CIVIL ADMINISTRATION AREA,,,,,-1.657820,55.007670
-1.51744364600373,55.028040107497,North Tyneside District (B),MTD,Metropolitan District,NORTH_TYNESIDE_DISTRICT_(B),10,44,50140,9699,E08000022,8481.918,250.208,AA,CIVIL ADMINISTRATION AREA,,,,,-1.517444,55.028040
-2.05065229524324,53.5518877019533,Oldham District (B),MTD,Metropolitan District,OLDHAM_DISTRICT_(B),8,48,56458,18690,E08000004,14234.507,0,AA,CIVIL ADMINISTRATION AREA,,,,,-2.050652,53.551888
-2.15786786408704,53.6165529570798,Rochdale District (B),MTD,Metropolitan District,ROCHDALE_DISTRICT_(B),4,44,56595,18825,E08000005,15812.803,0,AA,CIVIL ADMINISTRATION AREA,,,,,-2.157868,53.616553
-1.28615065085538,53.4086179535835,Rotherham District (B),MTD,Metropolitan District,ROTHERHAM_DISTRICT_(B),3,106,50362,9123,E08000018,28653.431,0,AA,CIVIL ADMINISTRATION AREA,,,,,-1.286151,53.408618
-2.3701907432487,53.4895388843798,Salford District (B),MTD,Metropolitan District,SALFORD_DISTRICT_(B),6,44,56575,18805,E08000006,9719.732,0,AA,CIVIL ADMINISTRATION AREA,,,,,-2.370191,53.489539
-2.00897270802701,52.5154273303661,Sandwell District (B),MTD,Metropolitan District,SANDWELL_DISTRICT_(B),3,52,40177,81,E08000028,8555.891,0,AA,CIVIL ADMINISTRATION AREA,,,,,-2.008973,52.515427
-3.01618346153803,53.5651913994356,Sefton District (B),MTD,Metropolitan District,SEFTON_DISTRICT_(B),9,69,46660,5960,E08000014,20477.967,4978.873,AA,CIVIL ADMINISTRATION AREA,,,,,-3.016183,53.565191
-1.55037912307389,53.4044148291631,Sheffield District (B),MTD,Metropolitan District,SHEFFIELD_DISTRICT_(B),6,66,50352,9113,E08000019,36793.009,0,AA,CIVIL ADMINISTRATION AREA,,,,,-1.550379,53.404415
-1.72707700682782,52.4131166148551,Solihull District (B),MTD,Metropolitan District,SOLIHULL_DISTRICT_(B),3,69,40102,9,E08000029,17828.205,0,AA,CIVIL ADMINISTRATION AREA,,,,,-1.727077,52.413117
-1.44421496478954,54.9635337986046,South Tyneside District (B),MTD,Metropolitan District,SOUTH_TYNESIDE_DISTRICT_(B),10,40,50126,9685,E08000023,6710.839,271.41,AA,CIVIL ADMINISTRATION AREA,,,,,-1.444215,54.963534
-2.12810875075491,53.3939613503441,Stockport District (B),MTD,Metropolitan District,STOCKPORT_DISTRICT_(B),12,50,56527,18757,E08000007,12604.032,0,AA,CIVIL ADMINISTRATION AREA,,,,,-2.128109,53.393961
-2.72362057936707,53.4594726402867,St. Helens District (B),MTD,Metropolitan District,ST_HELENS_DISTRICT_(B),3,49,46801,6000,E08000013,13635.876,0,AA,CIVIL ADMINISTRATION AREA,,,,,-2.723621,53.459473
-1.45194232342952,54.8803953287729,Sunderland District (B),MTD,Metropolitan District,SUNDERLAND_DISTRICT_(B),15,60,50083,9731,E08000024,13963.011,219.128,AA,CIVIL ADMINISTRATION AREA,,,,,-1.451942,54.880395
-2.06281384125436,53.4774719357906,Tameside District (B),MTD,Metropolitan District,TAMESIDE_DISTRICT_(B),15,44,56468,18700,E08000008,10315.421,0,AA,CIVIL ADMINISTRATION AREA,,,,,-2.062814,53.477472
-2.35534971716756,53.4189961949723,Trafford District (B),MTD,Metropolitan District,TRAFFORD_DISTRICT_(B),10,55,56556,18786,E08000009,10604.476,0,AA,CIVIL ADMINISTRATION AREA,,,,,-2.355350,53.418996
-1.41180773409466,53.6606750885257,Wakefield District (B),MTD,Metropolitan District,WAKEFIELD_DISTRICT_(B),18,107,61077,16758,E08000036,33861.969,0,AA,CIVIL ADMINISTRATION AREA,,,,,-1.411808,53.660675
-1.96634785632097,52.5992559230629,Walsall District (B),MTD,Metropolitan District,WALSALL_DISTRICT_(B),15,44,40168,72,E08000030,10397.35,0,AA,CIVIL ADMINISTRATION AREA,,,,,-1.966348,52.599256
-2.58950883106234,53.5241492545188,Wigan District (B),MTD,Metropolitan District,WIGAN_DISTRICT_(B),15,60,56640,18868,E08000010,18817.091,0,AA,CIVIL ADMINISTRATION AREA,,,,,-2.589509,53.524149
-3.0923673222768,53.3693179066691,Wirral District (B),MTD,Metropolitan District,WIRRAL_DISTRICT_(B),10,48,46783,6068,E08000015,25639.898,9935.249,AA,CIVIL ADMINISTRATION AREA,,,,,-3.092367,53.369318
-4.0613789176153,51.6415973869301,Abertawe - Swansea,UTA,Unitary Authority,ABERTAWE_-_SWANSEA,11,131,71439,25492,W06000011,42089.79,4123.87,AA,CIVIL ADMINISTRATION AREA,,,,,-4.061379,51.641597
-2.91744959413133,56.7238085401789,Angus,UTA,Unitary Authority,ANGUS,3,20,80405,30216,S12000041,220321.266,1803.982,AA,CIVIL ADMINISTRATION AREA,,,,,-2.917450,56.723809
-2.47525629415387,51.3559852877711,Bath and North East Somerset,UTA,Unitary Authority,BATH_AND_NORTH_EAST_SOMERSET,15,174,71543,25554,E06000022,35112.321,0,AA,CIVIL ADMINISTRATION AREA,,,,,-2.475256,51.355985
-0.477082432986095,52.1891805355605,Bedford (B),UTA,Unitary Authority,BEDFORD_(B),3,153,41015,43871,E06000055,47640.838,0,AA,CIVIL ADMINISTRATION AREA,,,,,-0.477082,52.189181
-2.46754769528861,53.6926124550458,Blackburn with Darwen (B),UTA,Unitary Authority,BLACKBURN_WITH_DARWEN_(B),8,65,101590,38840,E06000008,13702.199,0,AA,CIVIL ADMINISTRATION AREA,,,,,-2.467548,53.692612
-3.03552633979795,53.8176628313366,Blackpool (B),UTA,Unitary Authority,BLACKPOOL_(B),10,46,101616,38861,E06000009,4315.074,829.923,AA,CIVIL ADMINISTRATION AREA,,,,,-3.035526,53.817663
-3.19381863400514,51.7667399588681,Blaenau Gwent - Blaenau Gwent,UTA,Unitary Authority,BLAENAU_GWENT_-_BLAENAU_GWENT,9,48,108308,25494,W06000019,10872.795,0,AA,CIVIL ADMINISTRATION AREA,,,,,-3.193819,51.766740
-1.8578692576802,50.741839047233,Bournemouth (B),UTA,Unitary Authority,BOURNEMOUTH_(B),8,42,99907,38340,E06000028,4716.808,99.004,AA,CIVIL ADMINISTRATION AREA,,,,,-1.857869,50.741839
-0.739737620804653,51.4081125078166,Bracknell Forest (B),UTA,Unitary Authority,BRACKNELL_FOREST_(B),9,50,101679,38893,E06000036,10938.421,0,AA,CIVIL ADMINISTRATION AREA,,,,,-0.739738,51.408113
-3.39914564686709,51.4447855051231,Bro Morgannwg - the Vale of Glamorgan,UTA,Unitary Authority,BRO_MORGANNWG_-_THE_VALE_OF_GLAMORGAN,24,99,71449,25502,W06000014,33967.579,848.305,AA,CIVIL ADMINISTRATION AREA,,,,,-3.399146,51.444786
-3.20489732487445,51.6532701799849,Caerffili - Caerphilly,UTA,Unitary Authority,CAERFFILI_-_CAERPHILLY,18,101,71443,25496,W06000018,27738.773,0,AA,CIVIL ADMINISTRATION AREA,,,,,-3.204897,51.653270
-2.96192826471055,51.5736756469939,Casnewydd - Newport,UTA,Unitary Authority,CASNEWYDD_-_NEWPORT,11,84,71446,44426,W06000022,21776.751,2724.274,AA,CIVIL ADMINISTRATION AREA,,,,,-2.961928,51.573676
-3.74338837802977,51.6796974212075,Castell-nedd Port Talbot - Neath Port Talbot,UTA,Unitary Authority,CASTELL-NEDD_PORT_TALBOT_-_NEATH_PORT_TALBOT,19,144,71445,25498,W06000012,45186.998,953.458,AA,CIVIL ADMINISTRATION AREA,,,,,-3.743388,51.679697
-0.436291956304036,52.0066295673849,Central Bedfordshire,UTA,Unitary Authority,CENTRAL_BEDFORDSHIRE,15,222,123600,43870,E06000056,71566.521,0,AA,CIVIL ADMINISTRATION AREA,,,,,-0.436292,52.006630
-2.34994253222704,53.1802708968114,Cheshire East (B),UTA,Unitary Authority,CHESHIRE_EAST_(B),8,398,123504,43553,E06000049,116635.737,0,AA,CIVIL ADMINISTRATION AREA,,,,,-2.349943,53.180271
-2.73585623560537,53.2001564841303,Cheshire West and Chester (B),UTA,Unitary Authority,CHESHIRE_WEST_AND_CHESTER_(B),8,327,123503,43552,E06000050,94120.736,2450.672,AA,CIVIL ADMINISTRATION AREA,,,,,-2.735856,53.200156
-2.77079400674872,51.4527488553342,City of Bristol (B),UTA,Unitary Authority,CITY_OF_BRISTOL_(B),2,72,71510,25523,E06000023,23532.869,12562.863,AA,CIVIL ADMINISTRATION AREA,,,,,-2.770794,51.452749
-1.46834391381582,52.9125446847665,City of Derby (B),UTA,Unitary Authority,CITY_OF_DERBY_(B),5,38,97721,37538,E06000015,7803.111,0,AA,CIVIL ADMINISTRATION AREA,,,,,-1.468344,52.912545
-0.33535172217628,53.7599035584725,City of Kingston upon Hull (B),UTA,Unitary Authority,CITY_OF_KINGSTON_UPON_HULL_(B),3,50,71636,25639,E06000010,8149.757,1004.773,AA,CIVIL ADMINISTRATION AREA,,,,,-0.335352,53.759904
-1.12848520376463,52.6379143650002,City of Leicester (B),UTA,Unitary Authority,CITY_OF_LEICESTER_(B),9,46,97712,37533,E06000016,7334.215,0,AA,CIVIL ADMINISTRATION AREA,,,,,-1.128485,52.637914
-1.17652038801346,52.9605849731327,City of Nottingham (B),UTA,Unitary Authority,CITY_OF_NOTTINGHAM_(B),9,44,101609,38857,E06000018,7461.352,0,AA,CIVIL ADMINISTRATION AREA,,,,,-1.176520,52.960585
-0.253108695141409,52.6085582828733,City of Peterborough (B),UTA,Unitary Authority,CITY_OF_PETERBOROUGH_(B),9,106,101672,38886,E06000031,34343.798,5.966,AA,CIVIL ADMINISTRATION AREA,,,,,-0.253109,52.608558
-1.39871369417512,50.9169959807828,City of Southampton (B),UTA,Unitary Authority,CITY_OF_SOUTHAMPTON_(B),10,36,96957,37256,E06000045,5638.515,648.43,AA,CIVIL ADMINISTRATION AREA,,,,,-1.398714,50.916996
-2.16452834459531,53.0180191613903,City of Stoke-on-Trent (B),UTA,Unitary Authority,CITY_OF_STOKE-ON-TRENT_(B),7,78,100107,38408,E06000021,9344.849,0,AA,CIVIL ADMINISTRATION AREA,,,,,-2.164528,53.018019
-3.74222240767438,56.1504696770331,Clackmannanshire,UTA,Unitary Authority,CLACKMANNANSHIRE,4,14,80813,30418,S12000005,16391.264,494.056,AA,CIVIL ADMINISTRATION AREA,,,,,-3.742222,56.150470
-3.73645852205208,53.1408430237742,Conwy - Conwy,UTA,Unitary Authority,CONWY_-_CONWY,20,143,71440,25493,W06000003,115348.339,2329.216,AA,CIVIL ADMINISTRATION AREA,,,,,-3.736459,53.140843
-1.83989157473821,54.6954631233404,County Durham,UTA,Unitary Authority,COUNTY_DURHAM,10,407,42353,43607,E06000047,223269.869,115.627,AA,CIVIL ADMINISTRATION AREA,,,,,-1.839892,54.695463
-2.74495961427699,52.1034788359276,County of Herefordshire,UTA,Unitary Authority,COUNTY_OF_HEREFORDSHIRE,14,585,101690,38904,E06000019,217970.958,0,AA,CIVIL ADMINISTRATION AREA,,,,,-2.744960,52.103479
-1.55258571558948,54.5486992754687,Darlington (B),UTA,Unitary Authority,DARLINGTON_(B),4,92,100101,38404,E06000005,19747.56,0,AA,CIVIL ADMINISTRATION AREA,,,,,-1.552586,54.548699
-2.96955072777751,56.4772004891891,Dundee City,UTA,Unitary Authority,DUNDEE_CITY,7,20,124308,30215,S12000042,6222.376,239.276,AA,CIVIL ADMINISTRATION AREA,,,,,-2.969551,56.477200
-4.31420149833779,55.4850098605173,East Ayrshire,UTA,Unitary Authority,EAST_AYRSHIRE,4,22,122880,43393,S12000008,127034.179,0,AA,CIVIL ADMINISTRATION AREA,,,,,-4.314201,55.485010
-4.22555980892449,55.9560336466587,East Dunbartonshire,UTA,Unitary Authority,EAST_DUNBARTONSHIRE,6,20,80980,30501,S12000045,17448.898,0,AA,CIVIL ADMINISTRATION AREA,,,,,-4.225560,55.956034
-4.35951434565149,55.7531389909138,East Renfrewshire,UTA,Unitary Authority,EAST_RENFREWSHIRE,3,16,124520,30846,S12000011,17424.944,0,AA,CIVIL ADMINISTRATION AREA,,,,,-4.359514,55.753139
-0.482554449566575,53.8678408870137,East Riding of Yorkshire,UTA,Unitary Authority,EAST_RIDING_OF_YORKSHIRE,8,395,71631,25635,E06000011,249479.584,8830.439,AA,CIVIL ADMINISTRATION AREA,,,,,-0.482554,53.867841
-3.79064153252994,55.9973402676553,Falkirk,UTA,Unitary Authority,FALKIRK,6,22,122126,30504,S12000014,31493.339,1756.781,AA,CIVIL ADMINISTRATION AREA,,,,,-3.790642,55.997340
-4.25304961829091,55.8578952133736,Glasgow City,UTA,Unitary Authority,GLASGOW_CITY,15,46,81237,30631,S12000046,17644.896,174.339,AA,CIVIL ADMINISTRATION AREA,,,,,-4.253050,55.857895
-2.71879681598073,53.3437491326498,Halton (B),UTA,Unitary Authority,HALTON_(B),16,59,101598,38848,E06000006,9032.148,1123.752,AA,CIVIL ADMINISTRATION AREA,,,,,-2.718797,53.343749
-1.25560761340194,54.669055852264,Hartlepool (B),UTA,Unitary Authority,HARTLEPOOL_(B),9,42,125831,25589,E06000001,9844.17,488.219,AA,CIVIL ADMINISTRATION AREA,,,,,-1.255608,54.669056
-4.74266850572863,55.9044092049802,Inverclyde,UTA,Unitary Authority,INVERCLYDE,4,16,81234,30629,S12000018,17362.752,1166.676,AA,CIVIL ADMINISTRATION AREA,,,,,-4.742669,55.904409
-0.425590290674759,51.8942251082392,Luton (B),UTA,Unitary Authority,LUTON_(B),9,42,97716,37536,E06000032,4335.251,0,AA,CIVIL ADMINISTRATION AREA,,,,,-0.425590,51.894225
0.569484575410264,51.4257267926834,Medway (B),UTA,Unitary Authority,MEDWAY_(B),14,70,101698,38908,E06000035,26906.393,7552.359,AA,CIVIL ADMINISTRATION AREA,,,,,0.569485,51.425727
-3.36105665002519,51.7409417541129,Merthyr Tudful - Merthyr Tydfil,UTA,Unitary Authority,MERTHYR_TUDFUL_-_MERTHYR_TYDFIL,5,38,71444,25497,W06000024,11195.7,0,AA,CIVIL ADMINISTRATION AREA,,,,,-3.361057,51.740942
-1.22243019811153,54.542477305964,Middlesbrough (B),UTA,Unitary Authority,MIDDLESBROUGH_(B),3,48,71579,25586,E06000002,5455.357,66.496,AA,CIVIL ADMINISTRATION AREA,,,,,-1.222430,54.542477
-3.11041951383708,55.8322260570649,Midlothian,UTA,Unitary Authority,MIDLOTHIAN,4,16,127110,30634,S12000019,35527.166,0,AA,CIVIL ADMINISTRATION AREA,,,,,-3.110420,55.832226
-0.733540652850826,52.0838048566775,Milton Keynes (B),UTA,Unitary Authority,MILTON_KEYNES_(B),15,142,100131,38413,E06000042,30862.673,0,AA,CIVIL ADMINISTRATION AREA,,,,,-0.733541,52.083805
-0.132819268689343,53.5440014107748,North East Lincolnshire (B),UTA,Unitary Authority,NORTH_EAST_LINCOLNSHIRE_(B),8,76,71648,25650,E06000012,20355.412,1169.033,AA,CIVIL ADMINISTRATION AREA,,,,,-0.132819,53.544001
-3.94821839077641,55.8747574488148,North Lanarkshire,UTA,Unitary Authority,NORTH_LANARKSHIRE,9,44,124244,30503,S12000044,47221.634,0,AA,CIVIL ADMINISTRATION AREA,,,,,-3.948218,55.874757
-0.592729677514603,53.5939517819517,North Lincolnshire (B),UTA,Unitary Authority,NORTH_LINCOLNSHIRE_(B),9,151,71618,25623,E06000013,87568.475,2938.83,AA,CIVIL ADMINISTRATION AREA,,,,,-0.592730,53.593952
-3.60043629138164,51.5557821610801,Pen-y-bont ar Ogwr - Bridgend,UTA,Unitary Authority,PEN-Y-BONT_AR_OGWR_-_BRIDGEND,19,113,71442,25495,W06000013,25531.156,458.117,AA,CIVIL ADMINISTRATION AREA,,,,,-3.600436,51.555782
-3.81895286738003,56.5654543650416,Perth and Kinross,UTA,Unitary Authority,PERTH_AND_KINROSS,8,28,122113,30110,S12000024,541895.473,3518.493,AA,CIVIL ADMINISTRATION AREA,,,,,-3.818953,56.565454
-1.96512733818305,50.7403312204717,Poole (B),UTA,Unitary Authority,POOLE_(B),15,36,99904,38339,E06000029,7471.614,994.84,AA,CIVIL ADMINISTRATION AREA,,,,,-1.965127,50.740331
-3.40992526683129,52.3237431431289,Powys - Powys,UTA,Unitary Authority,POWYS_-_POWYS,7,347,71438,25491,W06000023,519545.622,13.54,AA,CIVIL ADMINISTRATION AREA,,,,,-3.409925,52.323743
-0.98382499352307,51.4529788352947,Reading (B),UTA,Unitary Authority,READING_(B),10,36,101681,38895,E06000038,4039.798,0,AA,CIVIL ADMINISTRATION AREA,,,,,-0.983825,51.452979
-1.02155737235486,54.5536059524984,Redcar and Cleveland (B),UTA,Unitary Authority,REDCAR_AND_CLEVELAND_(B),11,58,71583,25588,E06000003,25389.087,907.069,AA,CIVIL ADMINISTRATION AREA,,,,,-1.021557,54.553606
-4.54280399132901,55.8478106129331,Renfrewshire,UTA,Unitary Authority,RENFREWSHIRE,6,26,118992,30630,S12000038,26923.729,774.975,AA,CIVIL ADMINISTRATION AREA,,,,,-4.542804,55.847811
-3.43554851921429,51.650328022844,Rhondda Cynon Taf - Rhondda Cynon Taf,UTA,Unitary Authority,RHONDDA_CYNON_TAF_-_RHONDDA_CYNON_TAF,18,155,71447,25500,W06000016,42415.05,0,AA,CIVIL ADMINISTRATION AREA,,,,,-3.435549,51.650328
-0.654690615407234,52.6607235219658,Rutland,UTA,Unitary Authority,RUTLAND,4,148,97704,37528,E06000017,39374.897,0,AA,CIVIL ADMINISTRATION AREA,,,,,-0.654691,52.660724
-2.78846849680669,55.5762405905036,Scottish Borders,UTA,Unitary Authority,SCOTTISH_BORDERS,5,26,127095,36552,S12000026,474268.499,350.25,AA,CIVIL ADMINISTRATION AREA,,,,,-2.788468,55.576241
-2.73405297269067,52.6349014414425,Shropshire,UTA,Unitary Authority,SHROPSHIRE,18,534,59646,43822,E06000051,319727.55,0,AA,CIVIL ADMINISTRATION AREA,,,,,-2.734053,52.634901
-3.3541041525884,53.0919072095961,Sir Ddinbych - Denbighshire,UTA,Unitary Authority,SIR_DDINBYCH_-_DENBIGHSHIRE,12,135,71434,25487,W06000004,84638.009,783.592,AA,CIVIL ADMINISTRATION AREA,,,,,-3.354104,53.091907
-4.16319148728554,51.8997679576653,Sir Gaerfyrddin - Carmarthenshire,UTA,Unitary Authority,SIR_GAERFYRDDIN_-_CARMARTHENSHIRE,8,252,124956,25486,W06000010,243894.704,6781.413,AA,CIVIL ADMINISTRATION AREA,,,,,-4.163191,51.899768
-3.16312250017198,53.2178573449549,Sir y Fflint - Flintshire,UTA,Unitary Authority,SIR_Y_FFLINT_-_FLINTSHIRE,1,172,71775,25776,W06000005,48943.953,5194.951,AA,CIVIL ADMINISTRATION AREA,,,,,-3.163123,53.217857
-0.586234661777883,51.5083994241394,Slough (B),UTA,Unitary Authority,SLOUGH_(B),7,39,101677,38891,E06000039,3254.201,0,AA,CIVIL ADMINISTRATION AREA,,,,,-0.586235,51.508399
0.728731776311653,51.5380501780711,Southend-on-Sea (B),UTA,Unitary Authority,SOUTHEND-ON-SEA_(B),9,40,101696,38907,E06000033,6790.098,2614.537,AA,CIVIL ADMINISTRATION AREA,,,,,0.728732,51.538050
-2.47051476179692,51.5468356063067,South Gloucestershire,UTA,Unitary Authority,SOUTH_GLOUCESTERSHIRE,20,166,71548,25559,E06000025,53664.531,3969.821,AA,CIVIL ADMINISTRATION AREA,,,,,-2.470515,51.546836
-3.81063585318594,55.6126525856007,South Lanarkshire,UTA,Unitary Authority,SOUTH_LANARKSHIRE,4,44,123461,30847,S12000029,177402.214,12.518,AA,CIVIL ADMINISTRATION AREA,,,,,-3.810636,55.612653
-4.34034031984573,56.2440143880672,Stirling,UTA,Unitary Authority,STIRLING,3,18,127114,30502,S12000030,225481.245,146.816,AA,CIVIL ADMINISTRATION AREA,,,,,-4.340340,56.244014
-1.32897995667418,54.5627413686892,Stockton-on-Tees (B),UTA,Unitary Authority,STOCKTON-ON-TEES_(B),5,94,71582,25587,E06000004,20973.097,476.858,AA,CIVIL ADMINISTRATION AREA,,,,,-1.328980,54.562741
-1.743812830213,51.5715181112892,Swindon (B),UTA,Unitary Authority,SWINDON_(B),12,76,99373,38141,E06000030,23009.336,0,AA,CIVIL ADMINISTRATION AREA,,,,,-1.743813,51.571518
-2.48879524790288,52.7301949904019,Telford and Wrekin (B),UTA,Unitary Authority,TELFORD_AND_WREKIN_(B),3,120,101606,38854,E06000020,29031.346,0,AA,CIVIL ADMINISTRATION AREA,,,,,-2.488795,52.730195
-0.133100714074283,50.843480603156,The City of Brighton and Hove (B),UTA,Unitary Authority,THE_CITY_OF_BRIGHTON_AND_HOVE_(B),10,49,95559,36749,E06000043,8537.682,259.14,AA,CIVIL ADMINISTRATION AREA,,,,,-0.133101,50.843481
0.373108310375476,51.5059850298314,Thurrock (B),UTA,Unitary Authority,THURROCK_(B),8,44,101622,38866,E06000034,18431.778,2082.432,AA,CIVIL ADMINISTRATION AREA,,,,,0.373108,51.505985
-3.05342696329129,51.6985873839394,Tor-faen - Torfaen,UTA,Unitary Authority,TOR-FAEN_-_TORFAEN,13,77,71448,44425,W06000020,12624.005,0,AA,CIVIL ADMINISTRATION AREA,,,,,-3.053427,51.698587
-3.53020266338883,50.4406127283414,Torbay (B),UTA,Unitary Authority,TORBAY_(B),7,36,101666,38883,E06000027,11946.705,5657.614,AA,CIVIL ADMINISTRATION AREA,,,,,-3.530203,50.440613
-2.56362586802709,53.3988088726863,Warrington (B),UTA,Unitary Authority,WARRINGTON_(B),8,83,101593,38843,E06000007,18238.376,175.558,AA,CIVIL ADMINISTRATION AREA,,,,,-2.563626,53.398809
-1.30443555711972,51.4496285803836,West Berkshire,UTA,Unitary Authority,WEST_BERKSHIRE,13,185,101685,38899,E06000037,70416.943,0,AA,CIVIL ADMINISTRATION AREA,,,,,-1.304436,51.449629
-4.51760295105876,55.9848795352225,West Dunbartonshire,UTA,Unitary Authority,WEST_DUNBARTONSHIRE,7,16,94222,36549,S12000039,18278.289,547.697,AA,CIVIL ADMINISTRATION AREA,,,,,-4.517603,55.984880
-3.57378605373843,55.8849862432147,West Lothian,UTA,Unitary Authority,WEST_LOTHIAN,6,22,81240,30632,S12000040,43159.099,281.88,AA,CIVIL ADMINISTRATION AREA,,,,,-3.573786,55.884986
-1.94460788285197,51.2971158044402,Wiltshire,UTA,Unitary Authority,WILTSHIRE,14,723,59255,43925,E06000054,325533.806,0,AA,CIVIL ADMINISTRATION AREA,,,,,-1.944608,51.297116
-0.699478321735353,51.4856720902833,Windsor and Maidenhead (B),UTA,Unitary Authority,WINDSOR_AND_MAIDENHEAD_(B),16,78,101678,38892,E06000040,19842.706,0,AA,CIVIL ADMINISTRATION AREA,,,,,-0.699478,51.485672
-0.883842186114259,51.4294059615333,Wokingham (B),UTA,Unitary Authority,WOKINGHAM_(B),16,84,101680,38894,E06000041,17896.545,0,AA,CIVIL ADMINISTRATION AREA,,,,,-0.883842,51.429406
-3.01786395921996,52.9902689974095,Wrecsam - Wrexham,UTA,Unitary Authority,WRECSAM_-_WREXHAM,10,160,71830,25831,W06000006,50377.357,0,AA,CIVIL ADMINISTRATION AREA,,,,,-3.017864,52.990269
-1.06144993526595,53.9587205249615,York (B),UTA,Unitary Authority,YORK_(B),5,108,71590,25595,E06000014,27201.473,7.784,AA,CIVIL ADMINISTRATION AREA,,,,,-1.061450,53.958721
1.31061733599164,52.7011953568788,Broadland District,DIS,District,NORFOLK_COUNTY,24,1566,47486,6553,E07000144,55324.429,84.347,AA,CIVIL ADMINISTRATION AREA,,,,,1.310617,52.701195
1.16963226712032,52.8505343169282,North Norfolk District,DIS,District,NORFOLK_COUNTY,3,975,47877,7024,E07000147,99039.811,2635.204,AA,CIVIL ADMINISTRATION AREA,,,,,1.169632,52.850534
-3.82293774983906,50.3740104824071,South Hams District,DIS,District,DEVON_COUNTY,5,846,122080,22569,E07000044,90524.77,1876.275,AA,CIVIL ADMINISTRATION AREA,,,,,-3.822938,50.374010
-4.25072993017553,50.8874147860889,Torridge District,DIS,District,DEVON_COUNTY,11,1040,122020,22970,E07000046,99559.333,1023.709,AA,CIVIL ADMINISTRATION AREA,,,,,-4.250730,50.887415
-1.29620212619724,50.6759759307854,Isle of Wight,UTA,Unitary Authority,ISLE_OF_WIGHT,11,149,70735,25469,E06000046,39492.895,1476.452,AA,CIVIL ADMINISTRATION AREA,,,,,-1.296202,50.675976
-4.37434311895958,53.2856924469634,Sir Ynys Mon - Isle of Anglesey,UTA,Unitary Authority,SIR_YNYS_MON_-_ISLE_OF_ANGLESEY,11,112,70527,25482,W06000001,74902.277,3456.461,AA,CIVIL ADMINISTRATION AREA,,,,,-4.374343,53.285692
-4.02419196395789,52.8946382090241,Gwynedd - Gwynedd,UTA,Unitary Authority,GWYNEDD_-_GWYNEDD,9,265,71430,25483,W06000002,262237.896,7430.347,AA,CIVIL ADMINISTRATION AREA,,,,,-4.024192,52.894638
-3.19953526041853,51.5084299906933,Caerdydd - Cardiff,UTA,Unitary Authority,CAERDYDD_-_CARDIFF,7,101,71431,25484,W06000015,14951.129,722.402,AA,CIVIL ADMINISTRATION AREA,,,,,-3.199535,51.508430
-4.07310707453276,52.2557732076084,Sir Ceredigion - Ceredigion,UTA,Unitary Authority,SIR_CEREDIGION_-_CEREDIGION,12,172,119414,25485,W06000008,180586.74,1686.58,AA,CIVIL ADMINISTRATION AREA,,,,,-4.073107,52.255773
-2.86732633454136,51.7578152924659,Sir Fynwy - Monmouthshire,UTA,Unitary Authority,SIR_FYNWY_-_MONMOUTHSHIRE,12,146,125098,25489,W06000021,88605.34,3578.18,AA,CIVIL ADMINISTRATION AREA,,,,,-2.867326,51.757815
-4.88735604566376,51.8536244810711,Sir Benfro - Pembrokeshire,UTA,Unitary Authority,SIR_BENFRO_-_PEMBROKESHIRE,5,291,119409,25490,W06000009,165047.18,3179.448,AA,CIVIL ADMINISTRATION AREA,,,,,-4.887356,51.853624
-2.80097499816176,51.3891842094286,North Somerset,UTA,Unitary Authority,NORTH_SOMERSET,10,151,71495,25504,E06000024,39081.519,1617.542,AA,CIVIL ADMINISTRATION AREA,,,,,-2.800975,51.389184
-4.7713862889348,57.5729132936512,Highland,UTA,Unitary Authority,HIGHLAND,7,1098,80621,29638,S12000017,2647291.146,31010.393,AA,CIVIL ADMINISTRATION AREA,,,,,-4.771386,57.572913
-3.26750059661336,57.4754782977794,Moray,UTA,Unitary Authority,MORAY,5,22,79899,29959,S12000020,225709.024,1950.9,AA,CIVIL ADMINISTRATION AREA,,,,,-3.267501,57.475478
-3.03600903525108,59.029152782594,Orkney Islands,UTA,Unitary Authority,ORKNEY_ISLANDS,1,407,79906,29961,S12000023,108621.082,7286.421,AA,CIVIL ADMINISTRATION AREA,,,,,-3.036009,59.029153
-6.87460420737291,57.9076325797297,Na h-Eileanan an Iar,UTA,Unitary Authority,NA_H-EILEANAN_AN_IAR,2,2047,125700,30022,S12000013,326847.351,16877.047,AA,CIVIL ADMINISTRATION AREA,,,,,-6.874604,57.907633
-5.50285167269745,56.1219322282847,Argyll and Bute,UTA,Unitary Authority,ARGYLL_AND_BUTE,2,855,127078,30106,S12000035,716379.154,15608.21,AA,CIVIL ADMINISTRATION AREA,,,,,-5.502852,56.121932
-2.63201383157003,57.2411457700462,Aberdeenshire,UTA,Unitary Authority,ABERDEENSHIRE,7,150,122115,30111,S12000034,633822.222,2026.246,AA,CIVIL ADMINISTRATION AREA,,,,,-2.632014,57.241146
-3.12462960098357,56.22910365514,Fife,UTA,Unitary Authority,FIFE,5,56,122119,30419,S12000015,137390.631,4888.133,AA,CIVIL ADMINISTRATION AREA,,,,,-3.124630,56.229104
-2.17362399165384,57.1557760304528,Aberdeen City,UTA,Unitary Authority,ABERDEEN_CITY,7,34,122136,30421,S12000033,20562.614,1990.958,AA,CIVIL ADMINISTRATION AREA,,,,,-2.173624,57.155776
-3.28839229931168,55.9265220036379,City of Edinburgh,UTA,Unitary Authority,CITY_OF_EDINBURGH,11,42,81242,30505,S12000036,27300.411,965.236,AA,CIVIL ADMINISTRATION AREA,,,,,-3.288392,55.926522
-2.72088978053401,55.9420049608043,East Lothian,UTA,Unitary Authority,EAST_LOTHIAN,7,26,81246,30509,S12000010,70093.74,2175.761,AA,CIVIL ADMINISTRATION AREA,,,,,-2.720890,55.942005
-1.25404513817864,60.394893415967,Shetland Islands,UTA,Unitary Authority,SHETLAND_ISLANDS,3,1116,125404,30514,S12000027,165661.84,18752.719,AA,CIVIL ADMINISTRATION AREA,,,,,-1.254045,60.394893
-4.98039042218073,55.6505123351822,North Ayrshire,UTA,Unitary Authority,NORTH_AYRSHIRE,2,37,124387,30628,S12000021,90390.109,1848.677,AA,CIVIL ADMINISTRATION AREA,,,,,-4.980390,55.650512
-3.95933756803641,55.0711349507592,Dumfries and Galloway,UTA,Unitary Authority,DUMFRIES_AND_GALLOWAY,9,32,125698,31903,S12000006,667604.651,23842.903,AA,CIVIL ADMINISTRATION AREA,,,,,-3.959338,55.071135
-1.07844290430978,50.820481995851,City of Portsmouth (B),UTA,Unitary Authority,CITY_OF_PORTSMOUTH_(B),7,36,96952,37254,E06000044,6014.447,1978.032,AA,CIVIL ADMINISTRATION AREA,,,,,-1.078443,50.820482
-4.11992376754313,50.3917818797188,City of Plymouth (B),UTA,Unitary Authority,CITY_OF_PLYMOUTH_(B),13,48,122028,38872,E06000026,8436.268,453.251,AA,CIVIL ADMINISTRATION AREA,,,,,-4.119924,50.391782
-4.68929329677884,55.268281231993,South Ayrshire,UTA,Unitary Authority,SOUTH_AYRSHIRE,3,28,122877,43391,S12000028,123470.998,1059.702,AA,CIVIL ADMINISTRATION AREA,,,,,-4.689293,55.268281
-2.06630072544003,55.2414406212487,Northumberland,UTA,Unitary Authority,NORTHUMBERLAND,5,476,127016,43674,E06000057,507818.004,5196.541,AA,CIVIL ADMINISTRATION AREA,,,,,-2.066301,55.241441
-4.82737212433715,50.4055771585446,Cornwall,UTA,Unitary Authority,CORNWALL,2,696,122011,43750,E06000052,361344.258,7256.773,AA,CIVIL ADMINISTRATION AREA,,,,,-4.827372,50.405577
-6.31722367959354,49.9368593497416,Isles of Scilly,UTA,Unitary Authority,ISLES_OF_SCILLY,1,59,66920,43972,E06000053,2284.945,651.184,AA,CIVIL ADMINISTRATION AREA,,,,,-6.317224,49.936859
